{
    "links": {
        "self": "http://www.neowsapp.com/rest/v1/neo/3612172?api_key=iIulBulltgU6a56xZRHN4H3l9WmuAYTsLGpBGhQ2"
    },
    "id": "3612172",
    "neo_reference_id": "3612172",
    "name": "(2012 UY9)",
    "designation": "2012 UY9",
    "nasa_jpl_url": "http://ssd.jpl.nasa.gov/sbdb.cgi?sstr=3612172",
    "absolute_magnitude_h": 24.3,
    "estimated_diameter": {
        "kilometers": {
            "estimated_diameter_min": 0.0366906138,
            "estimated_diameter_max": 0.0820427065
        },
        "meters": {
            "estimated_diameter_min": 36.6906137531,
            "estimated_diameter_max": 82.0427064882
        },
        "miles": {
            "estimated_diameter_min": 0.0227984834,
            "estimated_diameter_max": 0.0509789586
        },
        "feet": {
            "estimated_diameter_min": 120.3760332259,
            "estimated_diameter_max": 269.1689931548
        }
    },
    "is_potentially_hazardous_asteroid": false,
    "close_approach_data": [
        {
            "close_approach_date": "2012-09-16",
            "close_approach_date_full": "2012-Sep-16 18:09",
            "epoch_date_close_approach": 1347818940000,
            "relative_velocity": {
                "kilometers_per_second": "8.888695616",
                "kilometers_per_hour": "31999.3042175267",
                "miles_per_hour": "19883.1232233849"
            },
            "miss_distance": {
                "astronomical": "0.0257014872",
                "lunar": "9.9978785208",
                "kilometers": "3844887.740952264",
                "miles": "2389102.4580746832"
            },
            "orbiting_body": "Earth"
        }
    ],
    "orbital_data": {
        "orbit_id": "5",
        "orbit_determination_date": "2017-04-06 08:48:26",
        "first_observation_date": "2012-10-17",
        "last_observation_date": "2012-10-20",
        "data_arc_in_days": 3,
        "observations_used": 14,
        "orbit_uncertainty": "9",
        "minimum_orbit_intersection": ".00703036",
        "jupiter_tisserand_invariant": "4.472",
        "epoch_osculation": "2456218.5",
        "eccentricity": ".3988076416197767",
        "semi_major_axis": "1.490182135102547",
        "inclination": "2.731697930458914",
        "ascending_node_longitude": "349.4362758761537",
        "orbital_period": "664.4425797822404",
        "perihelion_distance": ".8958861122183767",
        "perihelion_argument": "317.0328399259375",
        "aphelion_distance": "2.084478157986717",
        "perihelion_time": "2456149.079608009405",
        "mean_anomaly": "37.61249184964136",
        "mean_motion": ".5418075405672884",
        "equinox": "J2000",
        "orbit_class": {
            "orbit_class_type": "APO",
            "orbit_class_description": "Near-Earth asteroid orbits which cross the Earth’s orbit similar to that of 1862 Apollo",
            "orbit_class_range": "a (semi-major axis) > 1.0 AU; q (perihelion) < 1.017 AU"
        }
    },
    "is_sentry_object": false
}